[
  {
    "ORDINAL": "1",
    "COMMENT": "GENERATED VIA SPACETRACK.ORG API",
    "ORIGINATOR": "18 SPCS",
    "NORAD_CAT_ID": "729",
    "OBJECT_NAME": "SECOR 1B",
    "OBJECT_TYPE": "PAYLOAD",
    "CLASSIFICATION_TYPE": "U",
    "INTLDES": "64001C",
    "EPOCH": "2023-02-02 11:48:49",
    "EPOCH_MICROSECONDS": "299264",
    "MEAN_MOTION": "13.94970657",
    "ECCENTRICITY": "0.0016031",
    "INCLINATION": "69.9006",
    "RA_OF_ASC_NODE": "52.3527",
    "ARG_OF_PERICENTER": "223.7726",
    "MEAN_ANOMALY": "136.2108",
    "EPHEMERIS_TYPE": "0",
    "ELEMENT_SET_NO": "999",
    "REV_AT_EPOCH": "561",
    "BSTAR": "0.000052132",
    "MEAN_MOTION_DOT": "0.00000017",
    "MEAN_MOTION_DDOT": "0",
    "FILE": "3768408",
    "TLE_LINE0": "0 SECOR 1B",
    "TLE_LINE1": "1   729U 64001C   23033.49223726  .00000017  00000-0  52132-4 0  9990",
    "TLE_LINE2": "2   729  69.9006  52.3527 0016031 223.7726 136.2108 13.94970657  5618",
    "OBJECT_ID": "1964-001C",
    "OBJECT_NUMBER": "729",
    "SEMIMAJOR_AXIS": "7289.400",
    "PERIOD": "103.228",
    "APOGEE": "922.951",
    "PERIGEE": "899.580",
    "DECAYED": "0"
  },
  {
    "ORDINAL": "1",
    "COMMENT": "GENERATED VIA SPACETRACK.ORG API",
    "ORIGINATOR": "18 SPCS",
    "NORAD_CAT_ID": "730",
    "OBJECT_NAME": "SOLRAD 7A",
    "OBJECT_TYPE": "PAYLOAD",
    "CLASSIFICATION_TYPE": "U",
    "INTLDES": "64001D",
    "EPOCH": "2023-02-02 10:59:33",
    "EPOCH_MICROSECONDS": "576",
    "MEAN_MOTION": "13.95714517",
    "ECCENTRICITY": "0.0013917",
    "INCLINATION": "69.9064",
    "RA_OF_ASC_NODE": "39.3022",
    "ARG_OF_PERICENTER": "186.7605",
    "MEAN_ANOMALY": "285.816",
    "EPHEMERIS_TYPE": "0",
    "ELEMENT_SET_NO": "999",
    "REV_AT_EPOCH": "88889",
    "BSTAR": "0.000079022",
    "MEAN_MOTION_DOT": "0.00000054",
    "MEAN_MOTION_DDOT": "0",
    "FILE": "3768366",
    "TLE_LINE0": "0 SOLRAD 7A",
    "TLE_LINE1": "1 00730U 64001D   23033.45802084  .00000054  00000-0  79022-4 0  9996",
    "TLE_LINE2": "2 00730  69.9064  39.3022 0013917 186.7605 285.8160 13.95714517888893",
    "OBJECT_ID": "1964-001D",
    "OBJECT_NUMBER": "730",
    "SEMIMAJOR_AXIS": "7286.810",
    "PERIOD": "103.173",
    "APOGEE": "918.816",
    "PERIGEE": "898.534",
    "DECAYED": "0"
  },
  {
    "ORDINAL": "1",
    "COMMENT": "GENERATED VIA SPACETRACK.ORG API",
    "ORIGINATOR": "18 SPCS",
    "NORAD_CAT_ID": "731",
    "OBJECT_NAME": "GREB",
    "OBJECT_TYPE": "PAYLOAD",
    "CLASSIFICATION_TYPE": "U",
    "INTLDES": "64001E",
    "EPOCH": "2023-02-02 10:19:24",
    "EPOCH_MICROSECONDS": "193632",
    "MEAN_MOTION": "13.95943888",
    "ECCENTRICITY": "0.0013749",
    "INCLINATION": "69.9065",
    "RA_OF_ASC_NODE": "30.6396",
    "ARG_OF_PERICENTER": "182.7371",
    "MEAN_ANOMALY": "177.3661",
    "EPHEMERIS_TYPE": "0",
    "ELEMENT_SET_NO": "999",
    "REV_AT_EPOCH": "627",
    "BSTAR": "0.000072453",
    "MEAN_MOTION_DOT": "0.00000046",
    "MEAN_MOTION_DDOT": "0",
    "FILE": "3768777",
    "TLE_LINE0": "0 GREB",
    "TLE_LINE1": "1   731U 64001E   23033.43014113  .00000046  00000-0  72453-4 0  9995",
    "TLE_LINE2": "2   731  69.9065  30.6396 0013749 182.7371 177.3661 13.95943888  6272",
    "OBJECT_ID": "1964-001E",
    "OBJECT_NUMBER": "731",
    "SEMIMAJOR_AXIS": "7286.012",
    "PERIOD": "103.156",
    "APOGEE": "917.894",
    "PERIGEE": "897.859",
    "DECAYED": "0"
  },
  {
    "ORDINAL": "1",
    "COMMENT": "GENERATED VIA SPACETRACK.ORG API",
    "ORIGINATOR": "18 SPCS",
    "NORAD_CAT_ID": "732",
    "OBJECT_NAME": "SCOUT X-4 DEB",
    "OBJECT_TYPE": "DEBRIS",
    "CLASSIFICATION_TYPE": "U",
    "INTLDES": "63053H",
    "EPOCH": "2023-02-02 05:18:53",
    "EPOCH_MICROSECONDS": "787168",
    "MEAN_MOTION": "13.78728303",
    "ECCENTRICITY": "0.0505942",
    "INCLINATION": "78.5781",
    "RA_OF_ASC_NODE": "306.266",
    "ARG_OF_PERICENTER": "266.7531",
    "MEAN_ANOMALY": "87.5636",
    "EPHEMERIS_TYPE": "0",
    "ELEMENT_SET_NO": "999",
    "REV_AT_EPOCH": "80384",
    "BSTAR": "0.0020217",
    "MEAN_MOTION_DOT": "0.00005405",
    "MEAN_MOTION_DDOT": "0",
    "FILE": "3768366",
    "TLE_LINE0": "0 SCOUT X-4 DEB",
    "TLE_LINE1": "1 00732U 63053H   23033.22145587  .00005405  00000-0  20217-2 0  9992",
    "TLE_LINE2": "2 00732  78.5781 306.2660 0505942 266.7531  87.5636 13.78728303803848",
    "OBJECT_ID": "1963-053H",
    "OBJECT_NUMBER": "732",
    "SEMIMAJOR_AXIS": "7346.538",
    "PERIOD": "104.444",
    "APOGEE": "1340.095",
    "PERIGEE": "596.711",
    "DECAYED": "0"
  },
  {
    "ORDINAL": "1",
    "COMMENT": "GENERATED VIA SPACETRACK.ORG API",
    "ORIGINATOR": "18 SPCS",
    "NORAD_CAT_ID": "733",
    "OBJECT_NAME": "THOR AGENA D R/B",
    "OBJECT_TYPE": "ROCKET BODY",
    "CLASSIFICATION_TYPE": "U",
    "INTLDES": "64002A",
    "EPOCH": "2023-02-02 11:12:59",
    "EPOCH_MICROSECONDS": "381280",
    "MEAN_MOTION": "14.32667393",
    "ECCENTRICITY": "0.0032978",
    "INCLINATION": "99.0098",
    "RA_OF_ASC_NODE": "336.3087",
    "ARG_OF_PERICENTER": "314.3556",
    "MEAN_ANOMALY": "45.4926",
    "EPHEMERIS_TYPE": "0",
    "ELEMENT_SET_NO": "999",
    "REV_AT_EPOCH": "7668",
    "BSTAR": "0.0001263",
    "MEAN_MOTION_DOT": "0.00000297",
    "MEAN_MOTION_DDOT": "0",
    "FILE": "3768595",
    "TLE_LINE0": "0 THOR AGENA D R/B",
    "TLE_LINE1": "1   733U 64002A   23033.46735395  .00000297  00000-0  12630-3 0  9991",
    "TLE_LINE2": "2   733  99.0098 336.3087 0032978 314.3556  45.4926 14.32667393 76687",
    "OBJECT_ID": "1964-002A",
    "OBJECT_NUMBER": "733",
    "SEMIMAJOR_AXIS": "7160.966",
    "PERIOD": "100.512",
    "APOGEE": "806.446",
    "PERIGEE": "759.215",
    "DECAYED": "0"
  },
  {
    "ORDINAL": "1",
    "COMMENT": "GENERATED VIA SPACETRACK.ORG API",
    "ORIGINATOR": "18 SPCS",
    "NORAD_CAT_ID": "734",
    "OBJECT_NAME": "OPS 3367 A",
    "OBJECT_TYPE": "PAYLOAD",
    "CLASSIFICATION_TYPE": "U",
    "INTLDES": "64002B",
    "EPOCH": "2023-02-02 13:26:59",
    "EPOCH_MICROSECONDS": "271936",
    "MEAN_MOTION": "14.29011742",
    "ECCENTRICITY": "0.0014957",
    "INCLINATION": "99.0564",
    "RA_OF_ASC_NODE": "268.5734",
    "ARG_OF_PERICENTER": "152.5719",
    "MEAN_ANOMALY": "207.6253",
    "EPHEMERIS_TYPE": "0",
    "ELEMENT_SET_NO": "999",
    "REV_AT_EPOCH": "7296",
    "BSTAR": "0.0000536",
    "MEAN_MOTION_DOT": "0.00000088",
    "MEAN_MOTION_DDOT": "0",
    "FILE": "3768366",
    "TLE_LINE0": "0 OPS 3367 A",
    "TLE_LINE1": "1 00734U 64002B   23033.56040824  .00000088  00000-0  53600-4 0  9990",
    "TLE_LINE2": "2 00734  99.0564 268.5734 0014957 152.5719 207.6253 14.29011742 72960",
    "OBJECT_ID": "1964-002B",
    "OBJECT_NUMBER": "734",
    "SEMIMAJOR_AXIS": "7173.173",
    "PERIOD": "100.769",
    "APOGEE": "805.767",
    "PERIGEE": "784.309",
    "DECAYED": "0"
  },
  {
    "ORDINAL": "1",
    "COMMENT": "GENERATED VIA SPACETRACK.ORG API",
    "ORIGINATOR": "18 SPCS",
    "NORAD_CAT_ID": "735",
    "OBJECT_NAME": "OPS 3367 B",
    "OBJECT_TYPE": "PAYLOAD",
    "CLASSIFICATION_TYPE": "U",
    "INTLDES": "64002C",
    "EPOCH": "2023-02-02 21:45:31",
    "EPOCH_MICROSECONDS": "465152",
    "MEAN_MOTION": "14.2795643",
    "ECCENTRICITY": "0.0015658",
    "INCLINATION": "99.0819",
    "RA_OF_ASC_NODE": "263.3324",
    "ARG_OF_PERICENTER": "266.9685",
    "MEAN_ANOMALY": "92.9703",
    "EPHEMERIS_TYPE": "0",
    "ELEMENT_SET_NO": "999",
    "REV_AT_EPOCH": "7116",
    "BSTAR": "0.000053034",
    "MEAN_MOTION_DOT": "0.00000084",
    "MEAN_MOTION_DDOT": "0",
    "FILE": "3769055",
    "TLE_LINE0": "0 OPS 3367 B",
    "TLE_LINE1": "1   735U 64002C   23033.90661418  .00000084  00000-0  53034-4 0  9994",
    "TLE_LINE2": "2   735  99.0819 263.3324 0015658 266.9685  92.9703 14.27956430 71169",
    "OBJECT_ID": "1964-002C",
    "OBJECT_NUMBER": "735",
    "SEMIMAJOR_AXIS": "7176.707",
    "PERIOD": "100.843",
    "APOGEE": "809.809",
    "PERIGEE": "787.335",
    "DECAYED": "0"
  },
  {
    "ORDINAL": "1",
    "COMMENT": "GENERATED VIA SPACETRACK.ORG API",
    "ORIGINATOR": "18 SPCS",
    "NORAD_CAT_ID": "736",
    "OBJECT_NAME": "DELTA 1 DEB",
    "OBJECT_TYPE": "DEBRIS",
    "CLASSIFICATION_TYPE": "U",
    "INTLDES": "63054D",
    "EPOCH": "1981-11-24 22:38:41",
    "EPOCH_MICROSECONDS": "438688",
    "MEAN_MOTION": "16.32621528",
    "ECCENTRICITY": "0.0008559",
    "INCLINATION": "58.4626",
    "RA_OF_ASC_NODE": "136.3635",
    "ARG_OF_PERICENTER": "324.1362",
    "MEAN_ANOMALY": "43.4825",
    "EPHEMERIS_TYPE": "0",
    "ELEMENT_SET_NO": "999",
    "REV_AT_EPOCH": "97471",
    "BSTAR": "0.00082953",
    "MEAN_MOTION_DOT": "0.04988561",
    "MEAN_MOTION_DDOT": "0.000051766",
    "FILE": "34279",
    "TLE_LINE0": "0 DELTA 1 DEB",
    "TLE_LINE1": "1 00736U 63054  D 81328.94353517  .04988561 +51766-4 +82953-3 0  9993",
    "TLE_LINE2": "2 00736 058.4626 136.3635 0008559 324.1362 043.4825 16.32621528974714",
    "OBJECT_ID": "1963-054D",
    "OBJECT_NUMBER": "736",
    "SEMIMAJOR_AXIS": "6563.645",
    "PERIOD": "88.202",
    "APOGEE": "191.128",
    "PERIGEE": "179.893",
    "DECAYED": "1"
  }
]
